[{"OBJECT_NAME":"STARLINK-4798","OBJECT_ID":"2022-114AS","EPOCH":"2026-03-09T20:27:13.810752","MEAN_MOTION":15.08845946,"ECCENTRICITY":0.00012235,"INCLINATION":53.2167,"RA_OF_ASC_NODE":283.5863,"ARG_OF_PERICENTER":83.0007,"MEAN_ANOMALY":277.1125,"EPHEMERIS_TYPE":0,"CLASSIFICATION_TYPE":"U","NORAD_CAT_ID":53858,"ELEMENT_SET_NO":999,"REV_AT_EPOCH":19313,"BSTAR":0.00019481931,"MEAN_MOTION_DOT":2.815e-5,"MEAN_MOTION_DDOT":0},{"OBJECT_NAME":"COSMOS 375 DEB","OBJECT_ID":"1970-091AV","EPOCH":"2026-03-08T14:58:13.963008","MEAN_MOTION":13.44113345,"ECCENTRICITY":0.07825177,"INCLINATION":62.6579,"RA_OF_ASC_NODE":178.3172,"ARG_OF_PERICENTER":107.019,"MEAN_ANOMALY":261.8029,"EPHEMERIS_TYPE":0,"CLASSIFICATION_TYPE":"U","NORAD_CAT_ID":18866,"ELEMENT_SET_NO":999,"REV_AT_EPOCH":70150,"BSTAR":0.0010424485,"MEAN_MOTION_DOT":4.043e-5,"MEAN_MOTION_DDOT":0}]
